FENGYUN 3D              
1 43010U 17072A   26168.57020925 -.00000125  00000+0 -37278-4 0  9998
2 43010  99.0124 142.9997 0002559  61.9507 298.1927 14.19738418445046
NOAA 20 (JPSS-1)        
1 43013U 17073A   26168.56522533  .00000041  00000+0  40559-4 0  9994
2 43013  98.7771 108.0245 0000300  99.5534 260.5676 14.19511755444520
GOES 17                 
1 43226U 18022A   26167.95229310 -.00000186  00000+0  00000+0 0  9997
2 43226   0.9372  85.7144 0000423  32.6375  40.1765  1.00269717 30429
SENTINEL-3B             
1 43437U 18039A   26168.11957812  .00000086  00000+0  53558-4 0  9992
2 43437  98.6249 235.6528 0000727  88.7815 271.3448 14.26734700424110
FENGYUN 2H              
1 43491U 18050A   26167.77186332 -.00000134  00000+0  00000+0 0  9991
2 43491   3.0297  79.0759 0001982 138.6061  44.6323  1.00269582 29439
METOP-C                 
1 43689U 18087A   26168.56075894  .00000087  00000+0  59594-4 0  9991
2 43689  98.6645 228.1576 0001780 128.9759 231.1578 14.21512241394880
GEO-KOMPSAT-2A          
1 43823U 18100A   26167.78151464 -.00000346  00000+0  00000+0 0  9990
2 43823   0.0520 161.1533 0001821 282.3151 231.1896  1.00269131 27623
METEOR-M2 2             
1 44387U 19038A   26168.59590353  .00000057  00000+0  44703-4 0  9992
2 44387  98.9140 155.8874 0002060  46.9494 313.1857 14.24365855361350
ARKTIKA-M 1             
1 47719U 21016A   26168.49069990 -.00000210  00000+0  00000+0 0  9999
2 47719  63.2922  57.5948 7288528 269.9420  14.6012  2.00622504 38796
FENGYUN 3E              
1 49008U 21062A   26168.62449774  .00000268  00000+0  14709-3 0  9997
2 49008  98.7485 172.0275 0002828  85.2528 274.8971 14.19905308256649
GOES 18                 
1 51850U 22021A   26168.47683766  .00000092  00000+0  00000+0 0  9995
2 51850   0.0158 180.4018 0000478   6.1706 113.8064  1.00267231  6591
NOAA 21 (JPSS-2)        
1 54234U 22150A   26168.52762918  .00000028  00000+0  34059-4 0  9995
2 54234  98.7059 107.3111 0001685 152.9230 207.2035 14.19565472186596
METEOSAT-12 (MTG-I1)    
1 54743U 22170C   26167.91989407 -.00000011  00000+0  00000+0 0  9995
2 54743   0.7382  22.9673 0003163  71.4172 141.5467  1.00272546 12973
TIANMU-1 03             
1 55973U 23039A   26168.56754868  .00012501  00000+0  24685-3 0  9994
2 55973  97.5232 342.5510 0004206  97.7903 262.3824 15.47293735180895
TIANMU-1 04             
1 55974U 23039B   26168.62152466  .00012553  00000+0  24278-3 0  9993
2 55974  97.5168 341.7608 0004864  94.8956 265.2850 15.47892976180915
TIANMU-1 05             
1 55975U 23039C   26168.61300419  .00011951  00000+0  23668-3 0  9999
2 55975  97.5215 342.2129 0003998 114.1081 246.0587 15.47221537180884
TIANMU-1 06             
1 55976U 23039D   26168.62493008  .00012319  00000+0  23910-3 0  9997
2 55976  97.5220 342.8616 0004389 109.7487 250.4236 15.47796854180916
FENGYUN 3G              
1 56232U 23055A   26168.62134089  .00020117  00000+0  32658-3 0  9996
2 56232  49.9936 343.7839 0007016 298.1137  61.9120 15.52645786180076
METEOR-M2 3             
1 57166U 23091A   26168.52004544  .00000004  00000+0  20549-4 0  9994
2 57166  98.6090 223.4916 0004378 154.4769 205.6627 14.24046830154565
TIANMU-1 07             
1 57399U 23101A   26168.62341470  .00004875  00000+0  17139-3 0  9997
2 57399  97.2587 219.2818 0004122 120.6442 239.5206 15.29811770161716
TIANMU-1 08             
1 57400U 23101B   26168.59005538  .00004926  00000+0  17311-3 0  9997
2 57400  97.2576 219.0198 0005589 114.1779 246.0047 15.29816338161705
TIANMU-1 09             
1 57401U 23101C   26168.57346196  .00005089  00000+0  17859-3 0  9992
2 57401  97.2534 218.4191 0004608 125.9328 234.2341 15.29847524161704
TIANMU-1 10             
1 57402U 23101D   26168.60652034  .00005165  00000+0  18134-3 0  9990
2 57402  97.2613 219.5023 0006188 125.1405 235.0417 15.29819274161706
FENGYUN 3F              
1 57490U 23111A   26168.60840613  .00000034  00000+0  36616-4 0  9996
2 57490  98.6836 238.6093 0001594  93.1477 266.9882 14.19939173148920
ARKTIKA-M 2             
1 58584U 23198A   26160.78386103  .00000212  00000+0  00000+0 0  9997
2 58584  63.2205 155.1874 6900401 267.4353  18.7899  2.00606537 18179
TIANMU-1 11             
1 58645U 23205A   26168.57774485  .00004331  00000+0  16605-3 0  9991
2 58645  97.3441 190.1286 0008884  15.8249 344.3267 15.26999270137585
TIANMU-1 12             
1 58646U 23205B   26168.61365084  .00004524  00000+0  17357-3 0  9997
2 58646  97.3430 189.9196 0006683   2.3670 357.7600 15.26964122137570
TIANMU-1 13             
1 58647U 23205C   26168.58033480  .00004447  00000+0  17145-3 0  9995
2 58647  97.3457 190.1594 0005852 339.8733  20.2274 15.26817343137561
TIANMU-1 14             
1 58648U 23205D   26168.56552983  .00004410  00000+0  16981-3 0  9995
2 58648  97.3393 189.3262 0006823 344.1454  15.9570 15.26861830137561
TIANMU-1 19             
1 58660U 23208A   26168.61363925  .00006616  00000+0  21953-3 0  9999
2 58660  97.4511 284.9152 0003787 326.5385  33.5616 15.31579289137399
