OBJECT_NAME,OBJECT_ID,EPOCH,MEAN_MOTION,ECCENTRICITY,INCLINATION,RA_OF_ASC_NODE,ARG_OF_PERICENTER,MEAN_ANOMALY,EPHEMERIS_TYPE,CLASSIFICATION_TYPE,NORAD_CAT_ID,ELEMENT_SET_NO,REV_AT_EPOCH,BSTAR,MEAN_MOTION_DOT,MEAN_MOTION_DDOT
FENGYUN 3D,2017-072A,2026-06-17T13:41:06.079200,14.19738418,.00025599,99.0124,142.9997,61.9507,298.1927,0,U,43010,999,44504,-.37277643E-4,-.125E-5,0
NOAA 20 (JPSS-1),2017-073A,2026-06-17T13:33:55.468512,14.19511755,.00003003,98.7771,108.0245,99.5534,260.5676,0,U,43013,999,44452,.40559124E-4,.41E-6,0
GOES 17,2018-022A,2026-06-16T22:51:18.123840,1.00269717,.00004239,0.9372,85.7144,32.6375,40.1765,0,U,43226,999,3042,0,-.186E-5,0
SENTINEL-3B,2018-039A,2026-06-17T02:52:11.549568,14.26734700,.00007272,98.6249,235.6528,88.7815,271.3448,0,U,43437,999,42411,.53558085E-4,.86E-6,0
FENGYUN 2H,2018-050A,2026-06-16T18:31:28.990848,1.00269582,.00019828,3.0297,79.0759,138.6061,44.6323,0,U,43491,999,2943,0,-.134E-5,0
METOP-C,2018-087A,2026-06-17T13:27:29.572416,14.21512241,.00017804,98.6645,228.1576,128.9759,231.1578,0,U,43689,999,39488,.59594073E-4,.87E-6,0
GEO-KOMPSAT-2A,2018-100A,2026-06-16T18:45:22.864896,1.00269131,.00018216,0.0520,161.1533,282.3151,231.1896,0,U,43823,999,2762,0,-.346E-5,0
METEOR-M2 2,2019-038A,2026-06-17T14:18:06.064992,14.24365855,.00020608,98.9140,155.8874,46.9494,313.1857,0,U,44387,999,36135,.44702567E-4,.57E-6,0
ARKTIKA-M 1,2021-016A,2026-06-17T11:46:36.471360,2.00622504,.72885287,63.2922,57.5948,269.9420,14.6012,0,U,47719,999,3879,0,-.21E-5,0
FENGYUN 3E,2021-062A,2026-06-17T14:59:16.604736,14.19905308,.00028282,98.7485,172.0275,85.2528,274.8971,0,U,49008,999,25664,.14709437E-3,.268E-5,0
GOES 18,2022-021A,2026-06-17T11:26:38.773824,1.00267231,.00004782,0.0158,180.4018,6.1706,113.8064,0,U,51850,999,659,0,.92E-6,0
NOAA 21 (JPSS-2),2022-150A,2026-06-17T12:39:47.161152,14.19565472,.00016851,98.7059,107.3111,152.9230,207.2035,0,U,54234,999,18659,.34058825E-4,.28E-6,0
METEOSAT-12 (MTG-I1),2022-170C,2026-06-16T22:04:38.847648,1.00272546,.00031635,0.7382,22.9673,71.4172,141.5467,0,U,54743,999,1297,0,-.11E-6,0
TIANMU-1 03,2023-039A,2026-06-17T13:37:16.205952,15.47293735,.00042066,97.5232,342.5510,97.7903,262.3824,0,U,55973,999,18089,.24685432E-3,.12501E-3,0
TIANMU-1 04,2023-039B,2026-06-17T14:54:59.730624,15.47892976,.00048641,97.5168,341.7608,94.8956,265.2850,0,U,55974,999,18091,.24277867E-3,.12553E-3,0
TIANMU-1 05,2023-039C,2026-06-17T14:42:43.562016,15.47221537,.00039983,97.5215,342.2129,114.1081,246.0587,0,U,55975,999,18088,.23667978E-3,.11951E-3,0
TIANMU-1 06,2023-039D,2026-06-17T14:59:53.958912,15.47796854,.00043894,97.5220,342.8616,109.7487,250.4236,0,U,55976,999,18091,.23910343E-3,.12319E-3,0
FENGYUN 3G,2023-055A,2026-06-17T14:54:43.852896,15.52645786,.0007016,49.9936,343.7839,298.1137,61.9120,0,U,56232,999,18007,.32658252E-3,.20117E-3,0
METEOR-M2 3,2023-091A,2026-06-17T12:28:51.926016,14.24046830,.00043781,98.6090,223.4916,154.4769,205.6627,0,U,57166,999,15456,.20548866E-4,.4E-7,0
TIANMU-1 07,2023-101A,2026-06-17T14:57:43.030080,15.29811770,.00041228,97.2587,219.2818,120.6442,239.5206,0,U,57399,999,16171,.1713872E-3,.4875E-4,0
TIANMU-1 08,2023-101B,2026-06-17T14:09:40.784832,15.29816338,.00055897,97.2576,219.0198,114.1779,246.0047,0,U,57400,999,16170,.17311258E-3,.4926E-4,0
TIANMU-1 09,2023-101C,2026-06-17T13:45:47.113344,15.29847524,.0004608,97.2534,218.4191,125.9328,234.2341,0,U,57401,999,16170,.17858774E-3,.5089E-4,0
TIANMU-1 10,2023-101D,2026-06-17T14:33:23.357376,15.29819274,.00061881,97.2613,219.5023,125.1405,235.0417,0,U,57402,999,16170,.18134375E-3,.5165E-4,0
FENGYUN 3F,2023-111A,2026-06-17T14:36:06.289632,14.19939173,.00015949,98.6836,238.6093,93.1477,266.9882,0,U,57490,999,14892,.36615901E-4,.34E-6,0
ARKTIKA-M 2,2023-198A,2026-06-09T18:48:45.592992,2.00606537,.69004015,63.2205,155.1874,267.4353,18.7899,0,U,58584,999,1817,0,.212E-5,0
TIANMU-1 11,2023-205A,2026-06-17T13:51:57.155040,15.26999270,.00088841,97.3441,190.1286,15.8249,344.3267,0,U,58645,999,13758,.16605301E-3,.4331E-4,0
TIANMU-1 12,2023-205B,2026-06-17T14:43:39.432576,15.26964122,.00066833,97.3430,189.9196,2.3670,357.7600,0,U,58646,999,13757,.17356831E-3,.4524E-4,0
TIANMU-1 13,2023-205C,2026-06-17T13:55:40.926720,15.26817343,.00058521,97.3457,190.1594,339.8733,20.2274,0,U,58647,999,13756,.17144986E-3,.4447E-4,0
TIANMU-1 14,2023-205D,2026-06-17T13:34:21.777312,15.26861830,.00068239,97.3393,189.3262,344.1454,15.9570,0,U,58648,999,13756,.1698113E-3,.441E-4,0
TIANMU-1 19,2023-208A,2026-06-17T14:43:38.431200,15.31579289,.00037874,97.4511,284.9152,326.5385,33.5616,0,U,58660,999,13739,.21952657E-3,.6616E-4,0
